BEIDOU-2 IGSO-5         
1 37948U 11073A   26183.72937883 -.00000128  00000+0  00000+0 0  9990
2 37948  47.6496 271.3544 0114527 222.0502 141.5350  1.00270596 53296
LUCH-5A                 
1 37951U 11074B   26194.53966001 -.00000061  00000+0  00000+0 0  9996
2 37951   8.8184  73.4192 0002572  59.9903 159.2622  1.00272913 53317
BEIDOU-2 G5             
1 38091U 12008A   26194.14490061  .00000052  00000+0  00000+0 0  9994
2 38091   3.6351  69.5276 0007329 269.0592  63.2758  1.00269601 52621
BEIDOU-2 M3             
1 38250U 12018A   26194.49964644 -.00000069  00000+0  00000+0 0  9992
2 38250  55.7337 303.9888 0020987 272.3154  87.4648  1.86229839 96436
BEIDOU-2 M4             
1 38251U 12018B   26194.43198869 -.00000068  00000+0  00000+0 0  9994
2 38251  55.6338 303.2029 0012087 272.4400  87.4432  1.86229496 96434
SES-5                   
1 38652U 12036A   26194.27686833  .00000031  00000+0  00000+0 0  9993
2 38652   0.0465 318.7761 0001956 155.9990 281.0293  1.00271962 44712
BEIDOU-2 M6             
1 38775U 12050B   26193.06769868 -.00000042  00000+0  00000+0 0  9994
2 38775  56.5659  62.0719 0012987   1.2706 358.8013  1.86230839 93770
GSAT-10                 
1 38779U 12051B   26194.36356391 -.00000167  00000+0  00000+0 0  9994
2 38779   0.0969 265.1598 0007373 188.1418  51.7964  1.00271371 50365
NAVSTAR 67 (USA 239)    
1 38833U 12053A   26194.24160663  .00000002  00000+0  00000+0 0  9996
2 38833  53.5894 142.5319 0181886  66.1866 295.6647  2.00567855 99961
GSAT0103 (GALILEO-FM3)  
1 38857U 12055A   26193.69893603 -.00000030  00000+0  00000+0 0  9991
2 38857  55.8211 100.8454 0003847 310.2580  49.7209  1.70473314 85440
BEIDOU-2 G6             
1 38953U 12059A   26194.07859745 -.00000181  00000+0  00000+0 0  9991
2 38953   4.4833  73.2399 0008826 327.2041   2.7777  1.00274143 50162
LUCH-5B                 
1 38977U 12061A   26194.41514326 -.00000148  00000+0  00000+0 0  9994
2 38977  10.5372  49.6142 0003875 146.5269 228.3369  1.00270517 49870
COSMOS 2485 [GLONASS-M] 
1 39155U 13019A   26194.18855227 -.00000011  00000+0  00000+0 0  9998
2 39155  65.4339  72.7327 0022644 231.1311 128.7381  2.13103251102835
NAVSTAR 68 (USA 242)    
1 39166U 13023A   26194.10930740  .00000009  00000+0  00000+0 0  9997
2 39166  54.4844 267.9166 0141391  51.1125 310.2162  2.00563293 96401
IRNSS-1A                
1 39199U 13034A   26191.72043649  .00000047  00000+0  00000+0 0  9995
2 39199  35.7704  63.5328 0017567 183.4462 356.2994  1.00281941 47601
NAVSTAR 69 (USA 248)    
1 39533U 14008A   26194.11110840  .00000010  00000+0  00000+0 0  9993
2 39533  53.6575 148.2624 0084119 231.5389 127.6629  2.00561396 90203
ASTRA 5B                
1 39617U 14011B   26194.49439882  .00000134  00000+0  00000+0 0  9998
2 39617   0.0808 299.9471 0001980 189.5438   3.3742  1.00273336 44935
COSMOS 2492 [GLONASS-M] 
1 39620U 14012A   26193.67812899 -.00000063  00000+0  00000+0 0  9997
2 39620  65.2814 313.0702 0010308 318.3829  41.5439  2.13103273 95787
IRNSS-1B                
1 39635U 14017A   26193.71638483  .00000145  00000+0  00000+0 0  9998
2 39635  28.8793 239.9624 0022322 191.7120 171.9393  1.00275003 45057
LUCH-5V                 
1 39727U 14023A   26194.12316917 -.00000276  00000+0  00000+0 0  9994
2 39727   5.1933  69.4674 0002071  81.9291 278.6501  1.00274471 44628
NAVSTAR 70 (USA 251)    
1 39741U 14026A   26194.38712161 -.00000091  00000+0  00000+0 0  9997
2 39741  56.4842 330.4979 0038130 325.8384  33.9109  2.00558977 89069
COSMOS 2500 [GLONASS-M] 
1 40001U 14032A   26194.31681669 -.00000062  00000+0  00000+0 0  9994
2 40001  65.2160 312.7937 0008199 189.8458 170.1451  2.13105887 94017
NAVSTAR 71 (USA 256)    
1 40105U 14045A   26192.48449105 -.00000038  00000+0  00000+0 0  9999
2 40105  55.3686  87.4969 0034253 118.3351 242.0458  2.00559992 86568
GSAT0201 (GALILEO 5)    
1 40128U 14050A   26193.74924645 -.00000015  00000+0  00000+0 0  9992
2 40128  48.8466 272.3871 1678293 180.4210 179.4845  1.85519397 78792
GSAT0202 (GALILEO 6)    
1 40129U 14050B   26192.38774232 -.00000014  00000+0  00000+0 0  9996
2 40129  48.8660 271.5287 1679177 181.0429 178.6225  1.85520566 80934
IRNSS-1C                
1 40269U 14061A   26193.88009598 -.00000170  00000+0  00000+0 0  9998
2 40269   6.5810  88.4431 0022122   5.2065 236.9875  1.00272709 42945
NAVSTAR 72 (USA 258)    
1 40294U 14068A   26193.84845080 -.00000054  00000+0  00000+0 0  9994
2 40294  57.0052  29.9670 0067383  72.2015 288.5875  2.00552961 85722
COSMOS 2501 [GLONASS-K] 
1 40315U 14075A   26193.17141326  .00000094  00000+0  00000+0 0  9997
2 40315  63.6181 189.5071 0022686 212.6526 147.2271  2.13101266 90385
NAVSTAR 73 (USA 260)    
1 40534U 15013A   26193.98998106  .00000079  00000+0  00000+0 0  9991
2 40534  53.1662 203.1104 0110270  40.3597 320.4905  2.00549767 82341
GSAT0203 (GALILEO 7)    
1 40544U 15017A   26191.08953242 -.00000080  00000+0  00000+0 0  9990
2 40544  56.7788 340.9723 0002503 258.1316 101.8369  1.70476121 69590
GSAT0204 (GALILEO 8)    
1 40545U 15017B   26191.34538535 -.00000081  00000+0  00000+0 0  9995
2 40545  56.7851 340.9839 0002638 235.0424 124.9287  1.70475622 32649
